NORAD_CAT_ID,OBJECT_NAME,OBJECT_TYPE,EPOCH,MEAN_MOTION,ECCENTRICITY,INCLINATION,RA_OF_ASC_NODE,ARG_OF_PERICENTER,MEAN_ANOMALY,BSTAR,MEAN_MOTION_DOT,MEAN_MOTION_DDOT,TLE_LINE0,TLE_LINE1,TLE_LINE2,SEMIMAJOR_AXIS,PERIOD,APOGEE,PERIGEE,DECAYED
51804.0,STARLINK-3601,PAYLOAD,2022-07-05 22:00:00,15.08841399,0.0001229,53.2159,237.0481,85.3327,172.4068,0.00063514,9.835e-05,0.0,0 STARLINK-3601,1 51804U 22017AN  22186.91667824  .00009835  00000-0  63514-3 0  9999,2 51804  53.2159 237.0481 0001229  85.3327 172.4068 15.08841399  1302,6917.876,95.437,540.591,538.891,0.0
51804.0,STARLINK-3601,PAYLOAD,2022-07-06 06:00:00,15.08866743,0.0001313,53.216,235.5521,85.9405,183.3956,-0.0013027,-0.00020975,0.0,0 STARLINK-3601,1 51804U 22017AN  22187.25001157 -.00020975  00000-0 -13027-2 0  9991,2 51804  53.2160 235.5521 0001313  85.9405 183.3956 15.08866743 21599,6917.799,95.436,540.572,538.755,0.0
51804.0,STARLINK-3601,PAYLOAD,2022-07-06 14:00:01,15.08842547,0.0001353,53.216,234.057,75.2227,205.7332,0.00091237,0.00014263,0.0,0 STARLINK-3601,1 51804U 22017AN  22187.58334491  .00014263  00000-0  91237-3 0  9998,2 51804  53.2160 234.0570 0001353  75.2227 205.7332 15.08842547  1305,6917.873000000001,95.437,540.674,538.802,0.0
51804.0,STARLINK-3601,PAYLOAD,2022-07-06 20:42:31,15.08840264,0.0001349,53.2173,232.8011,83.7911,276.3234,0.0002001,2.898e-05,0.0,0 STARLINK-3601,1 51804U 22017AN  22187.86286349  .00002898  00000-0  20010-3 0  9999,2 51804  53.2173 232.8011 0001349  83.7911 276.3234 15.08840264 21585,6917.88,95.438,540.678,538.811,0.0
51804.0,STARLINK-3601,PAYLOAD,2022-07-07 14:00:01,15.08817016,0.0001437,53.2165,229.5678,74.0759,241.6691,0.0025806,0.00040996,0.0,0 STARLINK-3601,1 51804U 22017AN  22188.58334491  .00040996  00000-0  25806-2 0  9999,2 51804  53.2165 229.5678 0001437  74.0759 241.6691 15.08817016  1308,6917.951,95.439,540.81,538.822,0.0
51804.0,STARLINK-3601,PAYLOAD,2022-07-07 22:00:00,15.08822131,0.0001367,53.217,228.0705,83.3643,243.9732,0.0017368,0.00027448,0.0,0 STARLINK-3601,1 51804U 22017AN  22188.91667824  .00027448  00000-0  17368-2 0  9996,2 51804  53.2170 228.0705 0001367  83.3643 243.9732 15.08822131  1301,6917.935,95.439,540.746,538.854,0.0
51804.0,STARLINK-3601,PAYLOAD,2022-07-08 14:00:01,15.08838936,0.0001419999999999,53.2168,225.0786,73.2828,277.2613,0.0025206,0.00040054,0.0,0 STARLINK-3601,1 51804U 22017AN  22189.58334491  .00040054  00000-0  25206-2 0  9999,2 51804  53.2168 225.0786 0001420  73.2828 277.2613 15.08838936  1305,6917.884,95.438,540.731,538.766,0.0
51804.0,STARLINK-3601,PAYLOAD,2022-07-08 22:00:01,15.08847981,0.0001373,53.217,223.5804,83.8444,278.3823,0.0012285,0.00019322,0.0,0 STARLINK-3601,1 51804U 22017AN  22189.91668981  .00019322  00000-0  12285-2 0  9997,2 51804  53.2170 223.5804 0001373  83.8444 278.3823 15.08847981 21992,6917.856,95.437,540.6709999999998,538.771,0.0
51804.0,STARLINK-3601,PAYLOAD,2022-07-09 14:00:01,15.08823804,0.0001489,53.2166,220.5896,74.505,310.8182,0.0017203,0.00027184,0.0,0 STARLINK-3601,1 51804U 22017AN  22190.58334491  .00027184  00000-0  17203-2 0  9998,2 51804  53.2166 220.5896 0001489  74.5050 310.8182 15.08823804  1304,6917.93,95.439,540.825,538.765,0.0
51804.0,STARLINK-3601,PAYLOAD,2022-07-09 20:00:01,15.08835825,0.0001441999999999,53.2168,219.4659,82.6196,221.3947,-0.00036227,-6.048e-05,0.0,0 STARLINK-3601,1 51804U 22017AN  22190.83334491 -.00006048  00000-0 -36227-3 0  9992,2 51804  53.2168 219.4659 0001442  82.6196 221.3947 15.08835825  1301,6917.893,95.438,540.756,538.761,0.0
51804.0,STARLINK-3601,PAYLOAD,2022-07-10 06:00:00,15.08856305,0.0001476,53.2166,217.5964,82.1604,326.3368,-0.0019834,-0.00031729,0.0,0 STARLINK-3601,1 51804U 22017AN  22191.25001157 -.00031729  00000-0 -19834-2 0  9997,2 51804  53.2166 217.5964 0001476  82.1604 326.3368 15.08856305 22192,6917.831,95.437,540.717,538.674,0.0
51804.0,STARLINK-3601,PAYLOAD,2022-07-10 14:00:01,15.08831262,0.0001457,53.2159,216.1007,75.3014,344.7939,0.0011627,0.0001826,0.0,0 STARLINK-3601,1 51804U 22017AN  22191.58334491  .00018260  00000-0  11627-2 0  9998,2 51804  53.2159 216.1007 0001457  75.3014 344.7939 15.08831262  1308,6917.906999999997,95.438,540.78,538.764,0.0
51804.0,STARLINK-3601,PAYLOAD,2022-07-10 22:00:00,15.0881876,0.0001395999999999,53.2158,214.6026,86.4028,345.2958,0.0025973,0.00041266,0.0,0 STARLINK-3601,1 51804U 22017AN  22191.91667824  .00041266  00000-0  25973-2 0  9995,2 51804  53.2158 214.6026 0001396  86.4028 345.2958 15.08818760 22297,6917.945,95.439,540.776,538.845,0.0
51804.0,STARLINK-3601,PAYLOAD,2022-07-11 14:00:01,15.08839423,0.0001457,53.215,211.6116,75.7131,19.1714,0.00072841,0.00011323,0.0,0 STARLINK-3601,1 51804U 22017AN  22192.58334491  .00011323  00000-0  72841-3 0  9998,2 51804  53.2150 211.6116 0001457  75.7131  19.1714 15.08839423  1305,6917.882,95.438,540.755,538.739,0.0
51804.0,STARLINK-3601,PAYLOAD,2022-07-11 22:00:00,15.08825625,0.0001391,53.2149,210.1135,86.0582,20.4343,0.0022119,0.00035076,0.0,0 STARLINK-3601,1 51804U 22017AN  22192.91667824  .00035076  00000-0  22119-2 0  9997,2 51804  53.2149 210.1135 0001391  86.0582  20.4343 15.08825625  1302,6917.924,95.438,540.752,538.827,0.0
51804.0,STARLINK-3601,PAYLOAD,2022-07-12 14:00:01,15.08822701,0.0001361,53.2144,207.1223,73.8256,55.8493,0.00037852,5.739e-05,0.0,0 STARLINK-3601,1 51804U 22017AN  22193.58334491  .00005739  00000-0  37852-3 0  9996,2 51804  53.2144 207.1223 0001361  73.8256  55.8493 15.08822701 22549,6917.933000000001,95.439,540.74,538.857,0.0
51804.0,STARLINK-3601,PAYLOAD,2022-07-12 22:00:00,15.08806993,0.0001324,53.2145,205.6242,84.2477,57.0134,0.0025422,0.00040366,0.0,0 STARLINK-3601,1 51804U 22017AN  22193.91667824  .00040366  00000-0  25422-2 0  9996,2 51804  53.2145 205.6242 0001324  84.2477  57.0134 15.08806993  1306,6917.981,95.44,540.762,538.93,0.0
51804.0,STARLINK-3601,PAYLOAD,2022-07-13 14:00:01,15.08836151,0.0001412,53.2145,202.6329,72.7445,91.6712,-0.00020106,-3.486e-05,0.0,0 STARLINK-3601,1 51804U 22017AN  22194.58334491 -.00003486  00000-0 -20106-3 0  9990,2 51804  53.2145 202.6329 0001412  72.7445  91.6712 15.08836151  1309,6917.892,95.438,540.734,538.78,0.0
51804.0,STARLINK-3601,PAYLOAD,2022-07-13 22:00:00,15.08816026,0.0001371,53.2147,201.1348,82.1042,93.9069,0.0023457,0.00037217,0.0,0 STARLINK-3601,1 51804U 22017AN  22194.91667824  .00037217  00000-0  23457-2 0  9994,2 51804  53.2147 201.1348 0001371  82.1042  93.9069 15.08816026 22759,6917.954000000002,95.439,540.7669999999998,538.87,0.0
51804.0,STARLINK-3601,PAYLOAD,2022-07-14 14:00:01,15.0884835,0.0001465,53.215,198.1434,71.9114,127.2731,-0.0008388,-0.00013616,0.0,0 STARLINK-3601,1 51804U 22017AN  22195.58334491 -.00013616  00000-0 -83880-3 0  9995,2 51804  53.2150 198.1434 0001465  71.9114 127.2731 15.08848350 22857,6917.855,95.437,540.7330000000002,538.706,0.0
51804.0,STARLINK-3601,PAYLOAD,2022-07-14 22:00:00,15.08826539,0.0001426,53.2154,196.6454,80.7967,129.9948,0.0023081,0.00036623,0.0,0 STARLINK-3601,1 51804U 22017AN  22195.91667824  .00036623  00000-0  23081-2 0  9998,2 51804  53.2154 196.6454 0001426  80.7967 129.9948 15.08826539  1308,6917.922,95.438,540.773,538.8,0.0
51804.0,STARLINK-3601,PAYLOAD,2022-07-15 14:00:01,15.08873445,0.0001453,53.2158,193.654,71.8604,162.1248,-0.0035807,-0.00056877,0.0,0 STARLINK-3601,1 51804U 22017AN  22196.58334491 -.00056877  00000-0 -35807-2 0  9997,2 51804  53.2158 193.6540 0001453  71.8604 162.1248 15.08873445 23005,6917.778,95.435,540.648,538.638,0.0
51804.0,STARLINK-3601,PAYLOAD,2022-07-15 22:00:00,15.08810858,0.0001345,53.2163,192.1561,80.2595,165.3473,0.0022726,0.00036037,0.0,0 STARLINK-3601,1 51804U 22017AN  22196.91667824  .00036037  00000-0  22726-2 0  9993,2 51804  53.2163 192.1561 0001345  80.2595 165.3473 15.08810858  1304,6917.969,95.439,540.765,538.904,0.0
51804.0,STARLINK-3601,PAYLOAD,2022-07-16 06:00:00,15.08835075,0.0001431,53.2164,190.6614,72.4093,184.7772,-0.00075313,-0.00012252,0.0,0 STARLINK-3601,1 51804U 22017AN  22197.25001157 -.00012252  00000-0 -75313-3 0  9998,2 51804  53.2164 190.6614 0001431  72.4093 184.7772 15.08835075 23106,6917.895,95.438,540.75,538.77,0.0
51804.0,STARLINK-3601,PAYLOAD,2022-07-16 14:00:01,15.08851403,0.0001382,53.2164,189.1648,71.3432,197.4244,-0.0017895,-0.00028664,0.0,0 STARLINK-3601,1 51804U 22017AN  22197.58334491 -.00028664  00000-0 -17895-2 0  9998,2 51804  53.2164 189.1648 0001382  71.3432 197.4244 15.08851403  1302,6917.846,95.437,540.6669999999998,538.754,0.0
51804.0,STARLINK-3601,PAYLOAD,2022-07-16 22:00:00,15.08825961,0.0001348,53.2168,187.6671,81.5767,198.7941,0.00238,0.00037778,0.0,0 STARLINK-3601,1 51804U 22017AN  22197.91667824  .00037778  00000-0  23800-2 0  9991,2 51804  53.2168 187.6671 0001348  81.5767 198.7941 15.08825961 23202,6917.9230000000025,95.438,540.721,538.856,0.0
51804.0,STARLINK-3601,PAYLOAD,2022-07-17 14:00:01,15.08839189,0.0001269,53.2166,184.6759,75.9138,227.5721,-0.0020755,-0.00033167,0.0,0 STARLINK-3601,1 51804U 22017AN  22198.58334491 -.00033167  00000-0 -20755-2 0  9992,2 51804  53.2166 184.6759 0001269  75.9138 227.5721 15.08839189 23300,6917.8830000000025,95.438,540.626,538.87,0.0
51804.0,STARLINK-3601,PAYLOAD,2022-07-17 22:00:00,15.08813211,0.0001271,53.2169,183.1785,86.8696,228.2001,0.0022481,0.00035645,0.0,0 STARLINK-3601,1 51804U 22017AN  22198.91667824  .00035645  00000-0  22481-2 0  9997,2 51804  53.2169 183.1785 0001271  86.8696 228.2001 15.08813211  1302,6917.962,95.439,540.707,538.948,0.0
51804.0,STARLINK-3601,PAYLOAD,2022-07-18 06:00:00,15.08830737,0.0001338,53.2167,181.68400000000003,77.2314,249.4182,-0.00033326,-5.586e-05,0.0,0 STARLINK-3601,1 51804U 22017AN  22199.25001157 -.00005586  00000-0 -33326-3 0  9990,2 51804  53.2167 181.6840 0001338  77.2314 249.4182 15.08830737 23402,6917.909000000002,95.438,540.6990000000002,538.8480000000002,0.0
